{"type":"FeatureCollection","features":[{"type":"Feature","geometry":{"type":"MultiPolygon","coordinates":[[[[-122.83673,45.5929],[-122.83675,45.59181],[-122.81854,45.59184],[-122.81854,45.59061],[-122.81619,45.5906],[-122.81617,45.58822],[-122.81212,45.5882],[-122.81258,45.58895],[-122.81085,45.58964],[-122.8099,45.58938],[-122.81017,45.5883],[-122.80856,45.58785],[-122.80944,45.58723],[-122.80814,45.5856],[-122.806,45.58659],[-122.80589,45.58518],[-122.80486,45.58555],[-122.80285,45.58371],[-122.80346,45.58327],[-122.80169,45.58211],[-122.80135,45.58235],[-122.79982,45.58095],[-122.80062,45.58095],[-122.80061,45.57843],[-122.79862,45.5781],[-122.79749,45.57865],[-122.79669,45.5773],[-122.7955,45.57731],[-122.79533,45.57317],[-122.79355,45.57214],[-122.79125,45.57199],[-122.7906,45.57026],[-122.79136,45.56783],[-122.79528,45.56764],[-122.79518,45.56287],[-122.79,45.5629],[-122.78998,45.5557],[-122.7848,45.5557],[-122.78478,45.5499],[-122.78373,45.5499],[-122.78373,45.54855],[-122.78477,45.54847],[-122.78309,45.54841],[-122.78308,45.54875],[-122.78259,45.54874],[-122.7827,45.54841],[-122.77841,45.54837],[-122.77849,45.546],[-122.77688,45.54519],[-122.77741,45.54466],[-122.78018,45.54618],[-122.78087,45.54614],[-122.77959,45.54239],[-122.78218,45.54408],[-122.78249,45.5436],[-122.78331,45.54364],[-122.78398,45.54443],[-122.78244,45.54232],[-122.78477,45.54232],[-122.78486,45.53399],[-122.77984,45.5339],[-122.77995,45.53037],[-122.77472,45.53031],[-122.77466,45.53381],[-122.76609,45.53385],[-122.76611,45.53135],[-122.76348,45.53118],[-122.76349,45.52977],[-122.76519,45.52958],[-122.76518,45.52887],[-122.76609,45.52888],[-122.7661,45.52816],[-122.76447,45.52817],[-122.76449,45.52674],[-122.7632,45.52674],[-122.76315,45.52749],[-122.76207,45.52749],[-122.76183,45.52585],[-122.75932,45.5234],[-122.75932,45.52226],[-122.75868,45.52225],[-122.75862,45.52307],[-122.75795,45.52265],[-122.75795,45.52672],[-122.75934,45.52673],[-122.75949,45.52375],[-122.76182,45.52643],[-122.76184,45.52674],[-122.75934,45.52673],[-122.75936,45.5295],[-122.76009,45.52941],[-122.7601,45.53005],[-122.75771,45.53039],[-122.75674,45.5298],[-122.75429,45.53088],[-122.75074,45.53085],[-122.75074,45.5303],[-122.74901,45.53029],[-122.74904,45.53387],[-122.74947,45.53388],[-122.74941,45.53565],[-122.74992,45.53565],[-122.74985,45.53742],[-122.75419,45.53745],[-122.75432,45.53392],[-122.7559,45.53392],[-122.75587,45.53464],[-122.75723,45.53494],[-122.75661,45.53572],[-122.75751,45.53567],[-122.75823,45.53669],[-122.757,45.53696],[-122.75748,45.53739],[-122.75945,45.53747],[-122.75876,45.53932],[-122.75711,45.53885],[-122.75804,45.53864],[-122.7579,45.53797],[-122.75736,45.53808],[-122.75685,45.53747],[-122.75419,45.53745],[-122.75404,45.54091],[-122.7557,45.54091],[-122.75578,45.54398],[-122.7607,45.54338],[-122.76098,45.54485],[-122.76237,45.54658],[-122.76476,45.54717],[-122.76648,45.54692],[-122.76995,45.54905],[-122.77064,45.55029],[-122.76912,45.55022],[-122.76626,45.5517],[-122.76373,45.55197],[-122.76378,45.548],[-122.75491,45.54809],[-122.75504,45.5445],[-122.7545,45.54413],[-122.75389,45.5445],[-122.75375,45.5481],[-122.7437,45.54816],[-122.74373,45.5408],[-122.74064,45.53941],[-122.73937,45.53824],[-122.7375,45.53826],[-122.7375,45.53773],[-122.73927,45.53771],[-122.73955,45.53717],[-122.73627,45.5372],[-122.73628,45.53609],[-122.73985,45.53605],[-122.74022,45.53545],[-122.73752,45.53548],[-122.73752,45.53473],[-122.74047,45.53441],[-122.74019,45.53386],[-122.73867,45.53388],[-122.73867,45.53328],[-122.73617,45.53165],[-122.73618,45.5321],[-122.73422,45.5321],[-122.73423,45.53292],[-122.73211,45.53292],[-122.73212,45.53392],[-122.72937,45.53393],[-122.72936,45.53321],[-122.72568,45.53322],[-122.72477,45.53251],[-122.72475,45.53108],[-122.72643,45.53055],[-122.72705,45.53154],[-122.72703,45.5303],[-122.73526,45.53008],[-122.73318,45.52946],[-122.73257,45.5284],[-122.73281,45.52806],[-122.73216,45.52783],[-122.73203,45.52662],[-122.73358,45.52663],[-122.73359,45.5254],[-122.73078,45.52538],[-122.73062,45.5265],[-122.72849,45.52668],[-122.72849,45.52445],[-122.72678,45.52444],[-122.72435,45.52604],[-122.72339,45.52485],[-122.72339,45.52413],[-122.72405,45.52401],[-122.72526,45.52552],[-122.7251,45.52379],[-122.72586,45.52364],[-122.72608,45.52305],[-122.72849,45.52305],[-122.72849,45.52096],[-122.73068,45.52087],[-122.73067,45.52306],[-122.74127,45.52309],[-122.74125,45.52668],[-122.74381,45.52669],[-122.74381,45.52614],[-122.74494,45.52614],[-122.74671,45.52686],[-122.74714,45.52544],[-122.74636,45.52386],[-122.74385,45.52128],[-122.74386,45.51666],[-122.74583,45.51596],[-122.7427,45.51587],[-122.7427,45.51478],[-122.74227,45.51478],[-122.74227,45.51596],[-122.73977,45.51656],[-122.74036,45.5157],[-122.74139,45.51555],[-122.73986,45.5149],[-122.74143,45.51446],[-122.74157,45.51196],[-122.73977,45.51185],[-122.73976,45.51081],[-122.73905,45.51083],[-122.73908,45.51185],[-122.73809,45.51186],[-122.73822,45.51021],[-122.74072,45.51021],[-122.74155,45.51087],[-122.73969,45.50927],[-122.74182,45.50912],[-122.74167,45.50962],[-122.74383,45.50958],[-122.74381,45.50753],[-122.74304,45.50738],[-122.7438,45.50683],[-122.74269,45.50748],[-122.7425,45.50512],[-122.74041,45.5051],[-122.7371,45.50708],[-122.7371,45.50748],[-122.73663,45.50748],[-122.73665,45.50685],[-122.73465,45.50686],[-122.7363,45.50709],[-122.73629,45.50744],[-122.73454,45.50742],[-122.73456,45.50794],[-122.73269,45.50772],[-122.73269,45.50698],[-122.73214,45.50694],[-122.73205,45.50506],[-122.73147,45.50507],[-122.73147,45.50605],[-122.73104,45.50624],[-122.72947,45.50573],[-122.72953,45.50647],[-122.73004,45.50647],[-122.73004,45.5085],[-122.72663,45.50902],[-122.72331,45.50792],[-122.72325,45.50846],[-122.7212,45.5091],[-122.72146,45.5084],[-122.72286,45.50828],[-122.72289,45.50538],[-122.72479,45.50558],[-122.72586,45.5052],[-122.72585,45.50401],[-122.72714,45.50401],[-122.72713,45.50342],[-122.72946,45.50341],[-122.72929,45.50401],[-122.73104,45.50401],[-122.7324,45.5034],[-122.73236,45.50258],[-122.73355,45.50301],[-122.73355,45.50126],[-122.73231,45.50125],[-122.73223,45.50043],[-122.73108,45.50042],[-122.73093,45.50006],[-122.73129,45.49896],[-122.73081,45.49844],[-122.73212,45.49799],[-122.73093,45.49823],[-122.73071,45.49858],[-122.73118,45.49904],[-122.7303,45.49965],[-122.72967,45.49965],[-122.72956,45.49828],[-122.72956,45.49863],[-122.72866,45.49863],[-122.7278,45.49795],[-122.72508,45.49824],[-122.72508,45.49882],[-122.72597,45.49875],[-122.72599,45.50041],[-122.7251,45.50043],[-122.72509,45.49929],[-122.72385,45.4993],[-122.72195,45.50044],[-122.72211,45.49916],[-122.72401,45.49922],[-122.72399,45.49853],[-122.72323,45.49884],[-122.72321,45.4971],[-122.72402,45.49611],[-122.72321,45.49611],[-122.72318,45.49483],[-122.72656,45.49485],[-122.72686,45.49434],[-122.7438,45.4944],[-122.74379,45.49256],[-122.74477,45.49087],[-122.74379,45.4908],[-122.74376,45.48826],[-122.74544,45.48796],[-122.74547,45.48752],[-122.74527,45.48712],[-122.74375,45.48725],[-122.74368,45.47796],[-122.74736,45.47867],[-122.74705,45.47812],[-122.74739,45.47661],[-122.74662,45.47646],[-122.7466,45.47717],[-122.74578,45.47716],[-122.74544,45.47647],[-122.74544,45.4774],[-122.74428,45.47714],[-122.74447,45.47612],[-122.74363,45.47644],[-122.74363,45.4754],[-122.74451,45.47572],[-122.74495,45.47541],[-122.74495,45.47466],[-122.74364,45.47466],[-122.74365,45.46947],[-122.74495,45.46927],[-122.74495,45.46754],[-122.74708,45.46739],[-122.74733,45.46663],[-122.74888,45.46664],[-122.74896,45.46802],[-122.74989,45.46853],[-122.75436,45.46482],[-122.7552,45.46509],[-122.75399,45.46443],[-122.7526,45.46443],[-122.75171,45.46501],[-122.752,45.46441],[-122.75139,45.46441],[-122.75075,45.46517],[-122.74933,45.46483],[-122.74881,45.46541],[-122.74814,45.46427],[-122.74753,45.46427],[-122.74753,45.46559],[-122.74367,45.46558],[-122.74367,45.45849],[-122.7452,45.45849],[-122.74518,45.45718],[-122.74366,45.45668],[-122.74367,45.44728],[-122.74531,45.4477],[-122.74572,45.44473],[-122.74369,45.44511],[-122.74372,45.43329],[-122.73342,45.4332],[-122.73342,45.43437],[-122.7282,45.43433],[-122.72648,45.43732],[-122.72703,45.43836],[-122.72707,45.44038],[-122.72511,45.44037],[-122.7251,45.43982],[-122.72451,45.43984],[-122.72451,45.44037],[-122.71722,45.4403],[-122.71725,45.43816],[-122.71504,45.43815],[-122.71495,45.44024],[-122.71282,45.44023],[-122.7128,45.43493],[-122.71122,45.43468],[-122.71024,45.43468],[-122.71023,45.44021],[-122.70762,45.44018],[-122.70764,45.43747],[-122.70819,45.43748],[-122.7082,45.43657],[-122.70765,45.43657],[-122.70766,45.43491],[-122.70509,45.43484],[-122.70083,45.4338],[-122.702,45.43306],[-122.6987,45.43304],[-122.6987,45.43255],[-122.69739,45.43254],[-122.69727,45.43607],[-122.69603,45.43651],[-122.6871,45.43645],[-122.68714,45.43722],[-122.68398,45.43458],[-122.68188,45.43461],[-122.68186,45.43642],[-122.67548,45.43639],[-122.67557,45.43287],[-122.66615,45.43274],[-122.66644,45.43348],[-122.66761,45.43332],[-122.66763,45.43378],[-122.66683,45.43404],[-122.66811,45.43403],[-122.66838,45.43332],[-122.66926,45.43333],[-122.66837,45.43465],[-122.6695,45.43486],[-122.66934,45.43576],[-122.66859,45.43576],[-122.66864,45.43632],[-122.6694,45.43628],[-122.66941,45.43576],[-122.67041,45.43631],[-122.67045,45.4369],[-122.66797,45.43689],[-122.66933,45.43979],[-122.66779,45.44023],[-122.66869,45.44137],[-122.66782,45.4417],[-122.66826,45.44224],[-122.66911,45.44191],[-122.66889,45.44162],[-122.6693,45.44129],[-122.66997,45.44156],[-122.66997,45.44211],[-122.67169,45.44184],[-122.67225,45.4423],[-122.67065,45.44293],[-122.67065,45.44352],[-122.67143,45.44352],[-122.67142,45.44309],[-122.67292,45.44256],[-122.67286,45.44396],[-122.67056,45.44396],[-122.67055,45.44351],[-122.66962,45.44381],[-122.66959,45.44568],[-122.66889,45.44568],[-122.66872,45.44407],[-122.6682,45.44419],[-122.66819,45.4453],[-122.66722,45.44581],[-122.66722,45.44681],[-122.66917,45.44679],[-122.66916,45.44757],[-122.66689,45.44807],[-122.66695,45.44938],[-122.66509,45.44975],[-122.66619,45.451],[-122.66523,45.45066],[-122.66534,45.45222],[-122.66443,45.45242],[-122.66447,45.4531],[-122.66171,45.45442],[-122.66024,45.45265],[-122.65827,45.45324],[-122.66098,45.45782],[-122.65292,45.45832],[-122.65257,45.4554],[-122.64652,45.45572],[-122.64696,45.45867],[-122.64125,45.45867],[-122.64158,45.46148],[-122.62628,45.46145],[-122.62634,45.45851],[-122.62512,45.45852],[-122.62511,45.45954],[-122.62473,45.45954],[-122.62475,45.45852],[-122.62249,45.45853],[-122.62236,45.46144],[-122.61898,45.46145],[-122.619,45.46091],[-122.61763,45.46066],[-122.61687,45.46089],[-122.61682,45.46147],[-122.61537,45.46148],[-122.61361,45.46077],[-122.61303,45.46165],[-122.61169,45.46222],[-122.60908,45.46057],[-122.60963,45.45948],[-122.60841,45.45909],[-122.60872,45.46151],[-122.59766,45.46145],[-122.59766,45.46076],[-122.59718,45.46076],[-122.59718,45.46146],[-122.5967,45.46146],[-122.5967,45.46077],[-122.59624,45.4608],[-122.59625,45.46146],[-122.59572,45.46146],[-122.59553,45.4608],[-122.59545,45.46146],[-122.59343,45.46146],[-122.59321,45.46111],[-122.59322,45.46146],[-122.58845,45.46151],[-122.58825,45.46237],[-122.58767,45.46237],[-122.58806,45.46152],[-122.58684,45.46152],[-122.58613,45.46184],[-122.58613,45.4622],[-122.58683,45.46221],[-122.58683,45.46327],[-122.58581,45.46328],[-122.5855,45.46281],[-122.58549,45.46328],[-122.58443,45.46328],[-122.58443,45.46236],[-122.58551,45.46237],[-122.5855,45.46116],[-122.58001,45.46151],[-122.58001,45.46262],[-122.57904,45.46264],[-122.57905,45.46152],[-122.57013,45.46138],[-122.57135,45.45818],[-122.56606,45.45764],[-122.56604,45.46042],[-122.56548,45.46041],[-122.56548,45.46131],[-122.55825,45.46106],[-122.5583,45.46462],[-122.54804,45.4647],[-122.548,45.46105],[-122.54341,45.45985],[-122.54082,45.45657],[-122.53517,45.45654],[-122.53513,45.45804],[-122.53283,45.45802],[-122.53286,45.45688],[-122.52959,45.45686],[-122.52957,45.45783],[-122.52749,45.45781],[-122.52749,45.45869],[-122.52854,45.45869],[-122.52853,45.45955],[-122.53253,45.45956],[-122.53249,45.46132],[-122.51707,45.46126],[-122.51705,45.45929],[-122.5142,45.4593],[-122.51424,45.46126],[-122.51044,45.46126],[-122.51042,45.46266],[-122.50693,45.46265],[-122.50692,45.46358],[-122.50834,45.46359],[-122.51022,45.46606],[-122.50868,45.46607],[-122.50709,45.46515],[-122.50656,45.46738],[-122.50535,45.46649],[-122.50324,45.46739],[-122.50183,45.46674],[-122.50183,45.46609],[-122.5005,45.46607],[-122.50051,45.46469],[-122.50102,45.4647],[-122.50104,45.46107],[-122.50179,45.46111],[-122.50188,45.45384],[-122.49684,45.45378],[-122.49675,45.46098],[-122.49934,45.46103],[-122.4993,45.46251],[-122.49676,45.46245],[-122.49676,45.46336],[-122.49416,45.46339],[-122.49416,45.46408],[-122.49675,45.46452],[-122.49672,45.47328],[-122.49174,45.4731],[-122.49172,45.47555],[-122.48531,45.47558],[-122.48529,45.48081],[-122.48729,45.47918],[-122.489,45.47954],[-122.48832,45.48074],[-122.48757,45.48029],[-122.48691,45.48083],[-122.48816,45.48158],[-122.48942,45.47924],[-122.49297,45.47614],[-122.49316,45.4791],[-122.49353,45.47892],[-122.49297,45.48164],[-122.49379,45.48121],[-122.4938,45.48157],[-122.49166,45.4829],[-122.49157,45.48343],[-122.48781,45.48558],[-122.48813,45.48595],[-122.48776,45.48629],[-122.48987,45.48629],[-122.48985,45.48997],[-122.48601,45.48998],[-122.486,45.48918],[-122.48469,45.48918],[-122.48472,45.48999],[-122.48297,45.48998],[-122.48294,45.49357],[-122.47951,45.49358],[-122.4795,45.4954],[-122.48467,45.49539],[-122.48466,45.4972],[-122.48202,45.4972],[-122.48211,45.50096],[-122.48338,45.50094],[-122.48338,45.50258],[-122.48383,45.50259],[-122.48338,45.50321],[-122.48338,45.50458],[-122.48295,45.50458],[-122.48336,45.51016],[-122.48253,45.51043],[-122.48282,45.51104],[-122.48338,45.51104],[-122.48355,45.51718],[-122.48319,45.51718],[-122.48321,45.5187],[-122.48457,45.51869],[-122.48458,45.51811],[-122.48556,45.51858],[-122.48744,45.51858],[-122.48743,45.51802],[-122.48959,45.518],[-122.48959,45.51876],[-122.49025,45.51883],[-122.494,45.51865],[-122.49435,45.51829],[-122.49647,45.51852],[-122.49645,45.51916],[-122.49719,45.51916],[-122.4972,45.52002],[-122.49777,45.52001],[-122.49774,45.52236],[-122.49833,45.52236],[-122.49832,45.52318],[-122.49773,45.52316],[-122.49771,45.52556],[-122.49696,45.52555],[-122.49694,45.52642],[-122.49807,45.52643],[-122.49807,45.52709],[-122.49889,45.52709],[-122.49883,45.52773],[-122.49759,45.52769],[-122.49744,45.52961],[-122.49654,45.52991],[-122.49695,45.53082],[-122.4979,45.53113],[-122.49773,45.53195],[-122.49684,45.53233],[-122.49673,45.53315],[-122.49586,45.53332],[-122.49571,45.54242],[-122.49192,45.54246],[-122.49195,45.54877],[-122.49156,45.54869],[-122.49158,45.54974],[-122.47715,45.54829],[-122.47714,45.54891],[-122.47242,45.54929],[-122.47289,45.55093],[-122.47202,45.55092],[-122.47202,45.55148],[-122.47289,45.55148],[-122.4729,45.55882],[-122.47524,45.55872],[-122.47524,45.56081],[-122.52166,45.56785],[-122.53373,45.57117],[-122.54426,45.57623],[-122.54293,45.58062],[-122.54321,45.58459],[-122.54945,45.59706],[-122.55128,45.59744],[-122.54554,45.58705],[-122.54455,45.5841],[-122.54466,45.57899],[-122.54522,45.57728],[-122.54569,45.57707],[-122.56974,45.59041],[-122.58886,45.5982],[-122.58892,45.60522],[-122.60771,45.60814],[-122.64391,45.60974],[-122.675,45.61803],[-122.69138,45.62495],[-122.70175,45.6152],[-122.7158,45.62108],[-122.71545,45.61975],[-122.72972,45.62695],[-122.76508,45.65289],[-122.77132,45.64491],[-122.78515,45.63615],[-122.78871,45.63301],[-122.7916,45.62464],[-122.7923,45.61978],[-122.79585,45.61939],[-122.80173,45.61967],[-122.8017,45.61428],[-122.80243,45.61475],[-122.80286,45.61389],[-122.80398,45.61407],[-122.80332,45.61366],[-122.8038,45.61329],[-122.80452,45.61375],[-122.80401,45.61447],[-122.80535,45.6149],[-122.80496,45.61601],[-122.80726,45.61713],[-122.8096,45.61609],[-122.81016,45.61498],[-122.80985,45.61471],[-122.8108,45.61331],[-122.81583,45.61332],[-122.81603,45.60377],[-122.82628,45.6038],[-122.82624,45.60617],[-122.83286,45.60619],[-122.83285,45.60811],[-122.83471,45.60811],[-122.83473,45.60951],[-122.83653,45.60953],[-122.83673,45.5929]],[[-122.72593,45.52304],[-122.72567,45.5236],[-122.7243,45.52363],[-122.72427,45.52303],[-122.72593,45.52304]],[[-122.48972,45.47867],[-122.48929,45.47912],[-122.48773,45.47871],[-122.48811,45.47815],[-122.48972,45.47867]],[[-122.74665,45.46579],[-122.74661,45.46633],[-122.74495,45.46645],[-122.74495,45.4658],[-122.74665,45.46579]],[[-122.49338,45.48633],[-122.49017,45.48635],[-122.49072,45.48547],[-122.49338,45.48633]],[[-122.67303,45.4403],[-122.67292,45.44252],[-122.67055,45.4407],[-122.67059,45.4403],[-122.67303,45.4403]],[[-122.7353,45.51725],[-122.7332,45.5166],[-122.731,45.51734],[-122.73138,45.51566],[-122.73005,45.51515],[-122.73004,45.51442],[-122.73528,45.51447],[-122.7353,45.51725]],[[-122.72492,45.51246],[-122.72473,45.51337],[-122.72384,45.51423],[-122.72467,45.51455],[-122.72385,45.51448],[-122.72316,45.5152],[-122.72273,45.51485],[-122.72455,45.5128],[-122.72422,45.51237],[-122.72288,45.51466],[-122.72232,45.51475],[-122.72243,45.51538],[-122.72086,45.5151],[-122.72212,45.51432],[-122.7214,45.51337],[-122.71973,45.51413],[-122.71973,45.50861],[-122.72022,45.50881],[-122.72086,45.50828],[-122.72128,45.50842],[-122.72119,45.50928],[-122.72214,45.50944],[-122.72177,45.50987],[-122.72246,45.51032],[-122.72126,45.51164],[-122.72304,45.50995],[-122.72399,45.51033],[-122.72216,45.51178],[-122.72272,45.51182],[-122.72261,45.51223],[-122.7213,45.51231],[-122.72117,45.5119],[-122.72105,45.51234],[-122.72339,45.51259],[-122.72372,45.51188],[-122.72457,45.51194],[-122.72492,45.51246]],[[-122.56824,45.55372],[-122.56797,45.55679],[-122.56794,45.5554],[-122.55777,45.55539],[-122.5581,45.54645],[-122.55893,45.54645],[-122.55893,45.54803],[-122.56076,45.54887],[-122.5657,45.55267],[-122.56824,45.55372]]],[[[-122.56476,45.4604],[-122.56345,45.46036],[-122.56345,45.46081],[-122.56476,45.4604]]],[[[-122.56476,45.4596],[-122.56426,45.45943],[-122.56426,45.4598],[-122.56476,45.4596]]],[[[-122.58614,45.46256],[-122.58614,45.46244],[-122.5855,45.46247],[-122.58614,45.46256]]],[[[-122.59838,45.46102],[-122.59814,45.46077],[-122.59814,45.46101],[-122.59838,45.46102]]]]},"properties":{"NAME":"Portland city","GEOID":"4159000"}}]}